{"spkid": "50256344", "covariance": {"labels": ["e", "q", "tp", "node", "peri", "i"], "elements": [{"name": "e", "sigma": 1.62131762458529e-07, "units": null, "value": ".4429356588654642", "title": "eccentricity", "label": "e"}, {"name": "q", "sigma": 1.21225266272273e-07, "units": "au", "value": ".4183357106215225", "title": "perihelion distance", "label": "q"}, {"name": "tp", "sigma": 4.04054486199789e-05, "units": "TDB", "title": "time of perihelion passage", "value": "2457189.851278822493", "label": "tp"}, {"sigma": 0.000137306427805884, "name": "om", "units": "deg", "value": "48.48200400490929", "title": "longitude of the ascending node", "label": "node"}, {"label": "peri", "sigma": 0.000126972958834398, "name": "w", "units": "deg", "title": "argument of perihelion", "value": "136.6467937605099"}, {"label": "i", "title": "inclination", "value": "2.617610211679671", "units": "deg", "name": "i", "sigma": 9.62275284112741e-06}], "data": [["2.628670839790883E-14", "-1.965433309668893E-14", "-4.661585911777256E-12", "-7.484728206790728E-12", "5.431924810962885E-12", "9.681978153242382E-13"], ["-1.965433309668893E-14", "1.469556518278348E-14", "3.47560631427291E-12", "5.569387081987464E-12", "-4.0405111737327E-12", "-7.22592765649324E-13"], ["-4.661585911777256E-12", "3.47560631427291E-12", "1.632600278181752E-9", "3.01613609484528E-9", "-2.18002201450545E-9", "-2.561942656263387E-10"], ["-7.484728206790728E-12", "5.569387081987464E-12", "3.01613609484528E-9", "1.88530551168123E-8", "-1.726734512088781E-8", "-1.205666657985536E-9"], ["5.431924810962885E-12", "-4.0405111737327E-12", "-2.18002201450545E-9", "-1.726734512088781E-8", "1.612213227516177E-8", "1.080381621725675E-9"], ["9.681978153242382E-13", "-7.22592765649324E-13", "-2.561942656263387E-10", "-1.205666657985536E-9", "1.080381621725675E-9", "9.259737224142563E-11"]], "epoch": "2457097.5"}, "elements": [{"label": "e", "units": null, "value": ".4428379762314412", "title": "eccentricity", "sigma": "1.6226E-7", "name": "e"}, {"value": ".7511310959101408", "title": "semi-major axis", "units": "au", "sigma": "9.336E-9", "name": "a", "label": "a"}, {"units": "au", "value": ".4185017215127895", "title": "perihelion distance", "name": "q", "sigma": "1.1773E-7", "label": "q"}, {"label": "i", "units": "deg", "title": "inclination; angle with respect to x-y ecliptic plane", "value": "2.600198744282402", "sigma": "9.8899E-6", "name": "i"}, {"label": "node", "units": "deg", "value": "47.88022043607268", "title": "longitude of the ascending node", "sigma": ".00013598", "name": "om"}, {"label": "peri", "units": "deg", "value": "137.2136822493396", "title": "argument of perihelion", "name": "w", "sigma": ".00012618"}, {"name": "ma", "sigma": "4.0714E-5", "title": "mean anomaly", "value": "312.7211260863357", "units": "deg", "label": "M"}, {"label": "tp", "title": "time of perihelion passage", "value": "2461231.727460127967", "units": "TDB", "sigma": "2.7235E-5", "name": "tp"}, {"sigma": "4.4331E-6", "name": "per", "units": "d", "value": "237.7782023023002", "title": "sidereal orbital period", "label": "period"}, {"label": "n", "units": "deg/d", "value": "1.514015988489612", "title": "mean motion", "sigma": "2.8227E-8", "name": "n"}, {"label": "Q", "units": "au", "title": "aphelion distance", "value": "1.083760470307492", "name": "ad", "sigma": "1.347E-8"}], "epoch": "2461200.5"}